GLOBALSTAR M024         
1 25883U 99043A   25300.13193926 -.00000072  00000+0 -26264-3 0  9998
2 25883  52.0010  82.9037 0000657 353.6021 177.7002 11.10170829129515
GLOBALSTAR M027         
1 25884U 99043B   25299.92004463 -.00000087  00000+0 -88773-3 0  9999
2 25884  52.0183 165.1014 0020729 202.0290 157.9613 11.04372861155793
GLOBALSTAR M054         
1 25885U 99043C   25300.28521241 -.00000022  00000+0  12667-2 0  9996
2 25885  52.0133 269.4185 0005593  42.7038  96.8488 11.39221683134103
GLOBALSTAR M053         
1 25886U 99043D   25300.25693866 -.00000040  00000+0  84193-3 0  9991
2 25886  51.9974 223.9081 0003341 321.9187 179.1160 11.27667884134343
GLOBALSTAR M058         
1 25907U 99049A   25300.16340652 -.00000076  00000+0  11963-3 0  9997
2 25907  51.9911 116.7603 0002436 145.3299 214.7694 11.93203521557291
GLOBALSTAR M050         
1 25908U 99049B   25300.27508538 -.00000123  00000+0 -39663-3 0  9990
2 25908  51.9964 114.2697 0008090 297.6567 233.5583 12.07460381164146
GLOBALSTAR M033         
1 25909U 99049C   25300.14203878 -.00000171  00000+0 -75877-3 0  9996
2 25909  51.9933 337.3539 0013972 175.6739 184.4231 12.20292763551851
GLOBALSTAR M055         
1 25910U 99049D   25300.12590790 -.00000054  00000+0  34452-3 0  9991
2 25910  52.0039 341.7236 0007115  47.8015 312.3440 12.29434484184510
